IRIDIUM 171             
1 43929U 19002H   23309.51868936  .00000822  00000+0  28656-3 0  9993
2 43929  86.4021  32.7496 0002193  94.9540 265.1906 14.34218687252122
IRIDIUM 170             
1 43930U 19002J   23309.49069843  .00002206  00000+0  34600-3 0  9996
2 43930  86.6142  32.6152 0002144  96.7397 263.4064 14.72237420258797
IRIDIUM 167             
1 43931U 19002K   23309.51235077  .00000112  00000+0  32791-4 0  9998
2 43931  86.4011  32.5658 0002167  96.3292 263.8150 14.34217009252126
IRIDIUM 181             
1 56726U 23068S   23309.59073036  .00000278  00000+0  76191-4 0  9999
2 56726  86.8617  75.3712 0002863 112.2962 247.8544 14.43572350 24735
IRIDIUM 177             
1 56727U 23068T   23309.58498399  .00003473  00000+0  45346-3 0  9999
2 56727  86.1983  61.9778 0002233  91.1978 268.9498 14.80233654 25152
IRIDIUM 174             
1 56728U 23068U   23309.78238837  .00003537  00000+0  46182-3 0  9991
2 56728  86.1987  61.9696 0001942  91.3507 268.7936 14.80239697 25183
IRIDIUM 178             
1 56729U 23068V   23309.57416462  .00002315  00000+0  30134-3 0  9994
2 56729  86.5771  68.8878 0001922  87.4262 272.7180 14.80215102 25157
IRIDIUM 179             
1 56730U 23068W   23309.36594638  .00005200  00000+0  68073-3 0  9994
2 56730  86.6784  70.2799 0002175  91.3791 268.7680 14.80227792 25120
